[{"OBJECT_NAME":"STARLINK-35039","OBJECT_ID":"2025-194T","EPOCH":"2026-03-09T12:40:07.448736","MEAN_MOTION":15.05635311,"ECCENTRICITY":0.00030853,"INCLINATION":97.6025,"RA_OF_ASC_NODE":284.239,"ARG_OF_PERICENTER":77.2772,"MEAN_ANOMALY":282.88,"EPHEMERIS_TYPE":0,"CLASSIFICATION_TYPE":"U","NORAD_CAT_ID":65451,"ELEMENT_SET_NO":999,"REV_AT_EPOCH":2962,"BSTAR":0.00094098596,"MEAN_MOTION_DOT":0.00013538,"MEAN_MOTION_DDOT":0},{"OBJECT_NAME":"CZ-6A DEB","OBJECT_ID":"2022-151DD","EPOCH":"2026-03-09T17:22:01.111008","MEAN_MOTION":14.86690016,"ECCENTRICITY":0.00876761,"INCLINATION":98.4579,"RA_OF_ASC_NODE":137.3593,"ARG_OF_PERICENTER":94.708,"MEAN_ANOMALY":266.4154,"EPHEMERIS_TYPE":0,"CLASSIFICATION_TYPE":"U","NORAD_CAT_ID":54358,"ELEMENT_SET_NO":999,"REV_AT_EPOCH":17717,"BSTAR":0.0022043381,"MEAN_MOTION_DOT":0.00021004,"MEAN_MOTION_DDOT":0}]
